[
    {
        "Altitude(m)": 571551.260599104,
        "Argument of Periapsis(deg)": 0.0,
        "Eccentricity": 0.0,
        "Inclination(deg)": 53.0,
        "Latitude(deg)": -52.388146020217405,
        "Longitude(deg)": 1.624237276967096,
        "Mean Anomaly(deg)": -98.18180000000002,
        "RAAN(deg)": 205.0,
        "Satellite Name": "Starlink Shell 1 918",
        "Satellite Number": 918,
        "Semi-Major Axis(m)": 6931778.249405717,
        "Time(s)": 0
    },
    {
        "Altitude(m)": 571594.4024751456,
        "Argument of Periapsis(deg)": 0.00034857847951123687,
        "Eccentricity": 0.0,
        "Inclination(deg)": 53.0,
        "Latitude(deg)": -52.49958767562728,
        "Longitude(deg)": 2.5886348797356904,
        "Mean Anomaly(deg)": -97.55496879644338,
        "RAAN(deg)": 204.99948122992254,
        "Satellite Name": "Starlink Shell 1 918",
        "Satellite Number": 918,
        "Semi-Major Axis(m)": 6931778.249405717,
        "Time(s)": 10
    },
    {
        "Altitude(m)": 571634.1634095744,
        "Argument of Periapsis(deg)": 0.0006971569590224737,
        "Eccentricity": 0.0,
        "Inclination(deg)": 53.0,
        "Latitude(deg)": -52.60244192627597,
        "Longitude(deg)": 3.557925226784738,
        "Mean Anomaly(deg)": -96.92813759288649,
        "RAAN(deg)": 204.99896245984505,
        "Satellite Name": "Starlink Shell 1 918",
        "Satellite Number": 918,
        "Semi-Major Axis(m)": 6931778.249405717,
        "Time(s)": 20
    },
    {
        "Altitude(m)": 571670.5275200995,
        "Argument of Periapsis(deg)": 0.0010457354385337105,
        "Eccentricity": 0.0,
        "Inclination(deg)": 53.0,
        "Latitude(deg)": -52.69663716868968,
        "Longitude(deg)": 4.53175235780213,
        "Mean Anomaly(deg)": -96.30130638932984,
        "RAAN(deg)": 204.99844368976758,
        "Satellite Name": "Starlink Shell 1 918",
        "Satellite Number": 918,
        "Semi-Major Axis(m)": 6931778.249405717,
        "Time(s)": 30
    },
    {
        "Altitude(m)": 571703.4802776234,
        "Argument of Periapsis(deg)": 0.0013943139180449475,
        "Eccentricity": 0.0,
        "Inclination(deg)": 53.0,
        "Latitude(deg)": -52.78210713805487,
        "Longitude(deg)": 5.509748387744359,
        "Mean Anomaly(deg)": -95.67447518577309,
        "RAAN(deg)": 204.99792491969012,
        "Satellite Name": "Starlink Shell 1 918",
        "Satellite Number": 918,
        "Semi-Major Axis(m)": 6931778.249405717,
        "Time(s)": 40
    },
    {
        "Altitude(m)": 571733.0085125362,
        "Argument of Periapsis(deg)": 0.0017428923975561844,
        "Eccentricity": 0.0,
        "Inclination(deg)": 53.0,
        "Latitude(deg)": -52.85879113000132,
        "Longitude(deg)": 6.491533331718089,
        "Mean Anomaly(deg)": -95.0476439822164,
        "RAAN(deg)": 204.99740614961263,
        "Satellite Name": "Starlink Shell 1 918",
        "Satellite Number": 918,
        "Semi-Major Axis(m)": 6931778.249405717,
        "Time(s)": 50
    },
    {
        "Altitude(m)": 571759.1004204189,
        "Argument of Periapsis(deg)": 0.002091470877067421,
        "Eccentricity": 0.0,
        "Inclination(deg)": 53.0,
        "Latitude(deg)": -52.92663420715773,
        "Longitude(deg)": 7.476716519220147,
        "Mean Anomaly(deg)": -94.42081277865978,
        "RAAN(deg)": 204.99688737953517,
        "Satellite Name": "Starlink Shell 1 918",
        "Satellite Number": 918,
        "Semi-Major Axis(m)": 6931778.249405717,
        "Time(s)": 60
    },
    {
        "Altitude(m)": 571781.7455671536,
        "Argument of Periapsis(deg)": 0.0024400493565786582,
        "Eccentricity": 0.0,
        "Inclination(deg)": 53.0,
        "Latitude(deg)": -52.9855873888857,
        "Longitude(deg)": 8.464898080355166,
        "Mean Anomaly(deg)": -93.793981575103,
        "RAAN(deg)": 204.99636860945768,
        "Satellite Name": "Starlink Shell 1 918",
        "Satellite Number": 918,
        "Semi-Major Axis(m)": 6931778.249405717,
        "Time(s)": 70
    },
    {
        "Altitude(m)": 571800.93489343,
        "Argument of Periapsis(deg)": 0.002788627836089895,
        "Eccentricity": 0.0,
        "Inclination(deg)": 53.0,
        "Latitude(deg)": -53.03560782269715,
        "Longitude(deg)": 9.455668985777487,
        "Mean Anomaly(deg)": -93.16715037154634,
        "RAAN(deg)": 204.9958498393802,
        "Satellite Name": "Starlink Shell 1 918",
        "Satellite Number": 918,
        "Semi-Major Axis(m)": 6931778.249405717,
        "Time(s)": 80
    },
    {
        "Altitude(m)": 571816.6607186794,
        "Argument of Periapsis(deg)": 0.0031372063156011316,
        "Eccentricity": 0.0,
        "Inclination(deg)": 53.0,
        "Latitude(deg)": -53.0766589359709,
        "Longitude(deg)": 10.448612659891351,
        "Mean Anomaly(deg)": -92.54031916798957,
        "RAAN(deg)": 204.99533106930272,
        "Satellite Name": "Starlink Shell 1 918",
        "Satellite Number": 918,
        "Semi-Major Axis(m)": 6931778.249405717,
        "Time(s)": 90
    },
    {
        "Altitude(m)": 571828.9167443787,
        "Argument of Periapsis(deg)": 0.0034857847951123688,
        "Eccentricity": 0.0,
        "Inclination(deg)": 53.0,
        "Latitude(deg)": -53.10871056672916,
        "Longitude(deg)": 11.443306647446837,
        "Mean Anomaly(deg)": -91.91348796443285,
        "RAAN(deg)": 204.9948122992253,
        "Satellite Name": "Starlink Shell 1 918",
        "Satellite Number": 918,
        "Semi-Major Axis(m)": 6931778.249405717,
        "Time(s)": 100
    },
    {
        "Altitude(m)": 571837.6980568033,
        "Argument of Periapsis(deg)": 0.003834363274623606,
        "Eccentricity": 0.0,
        "Inclination(deg)": 53.0,
        "Latitude(deg)": -53.13173907239232,
        "Longitude(deg)": 12.439322812979132,
        "Mean Anomaly(deg)": -91.28665676087616,
        "RAAN(deg)": 204.99429352914777,
        "Satellite Name": "Starlink Shell 1 918",
        "Satellite Number": 918,
        "Semi-Major Axis(m)": 6931778.249405717,
        "Time(s)": 110
    },
    {
        "Altitude(m)": 571843.0011291316,
        "Argument of Periapsis(deg)": 0.004182941754134842,
        "Eccentricity": 0.0,
        "Inclination(deg)": 53.0,
        "Latitude(deg)": -53.14572741559375,
        "Longitude(deg)": 13.43622909054847,
        "Mean Anomaly(deg)": -90.65982555731941,
        "RAAN(deg)": 204.99377475907033,
        "Satellite Name": "Starlink Shell 1 918",
        "Satellite Number": 918,
        "Semi-Major Axis(m)": 6931778.249405717,
        "Time(s)": 120
    },
    {
        "Altitude(m)": 571844.8238229793,
        "Argument of Periapsis(deg)": 0.004531520233646079,
        "Eccentricity": 0.0,
        "Inclination(deg)": 53.0,
        "Latitude(deg)": -53.15066522632974,
        "Longitude(deg)": 14.433591262116765,
        "Mean Anomaly(deg)": -90.03299435376263,
        "RAAN(deg)": 204.99325598899287,
        "Satellite Name": "Starlink Shell 1 918",
        "Satellite Number": 918,
        "Semi-Major Axis(m)": 6931778.249405717,
        "Time(s)": 130
    },
    {
        "Altitude(m)": 571843.1653893384,
        "Argument of Periapsis(deg)": 0.0048800987131573164,
        "Eccentricity": 0.0,
        "Inclination(deg)": 53.0,
        "Latitude(deg)": -53.14654883991777,
        "Longitude(deg)": 15.430973242512673,
        "Mean Anomaly(deg)": -89.40616315020597,
        "RAAN(deg)": 204.99273721891538,
        "Satellite Name": "Starlink Shell 1 918",
        "Satellite Number": 918,
        "Semi-Major Axis(m)": 6931778.249405717,
        "Time(s)": 140
    },
    {
        "Altitude(m)": 571838.0264688855,
        "Argument of Periapsis(deg)": 0.005228677192668553,
        "Eccentricity": 0.0,
        "Inclination(deg)": 53.0,
        "Latitude(deg)": -53.13338131043166,
        "Longitude(deg)": 16.42793888728627,
        "Mean Anomaly(deg)": -88.77933194664924,
        "RAAN(deg)": 204.99221844883792,
        "Satellite Name": "Starlink Shell 1 918",
        "Satellite Number": 918,
        "Semi-Major Axis(m)": 6931778.249405717,
        "Time(s)": 150
    },
    {
        "Altitude(m)": 571829.4090917149,
        "Argument of Periapsis(deg)": 0.00557725567217979,
        "Eccentricity": 0.0,
        "Inclination(deg)": 53.0,
        "Latitude(deg)": -53.11117239950129,
        "Longitude(deg)": 17.424053800998532,
        "Mean Anomaly(deg)": -88.15250074309259,
        "RAAN(deg)": 204.99169967876045,
        "Satellite Name": "Starlink Shell 1 918",
        "Satellite Number": 918,
        "Semi-Major Axis(m)": 6931778.249405717,
        "Time(s)": 160
    },
    {
        "Altitude(m)": 571817.3166764741,
        "Argument of Periapsis(deg)": 0.0059258341516910265,
        "Eccentricity": 0.0,
        "Inclination(deg)": 53.0,
        "Latitude(deg)": -53.07993854057571,
        "Longitude(deg)": 18.418885623489874,
        "Mean Anomaly(deg)": -87.52566953953581,
        "RAAN(deg)": 204.99118090868296,
        "Satellite Name": "Starlink Shell 1 918",
        "Satellite Number": 918,
        "Semi-Major Axis(m)": 6931778.249405717,
        "Time(s)": 170
    },
    {
        "Altitude(m)": 571801.7540288782,
        "Argument of Periapsis(deg)": 0.006274412631202263,
        "Eccentricity": 0.0,
        "Inclination(deg)": 53.0,
        "Latitude(deg)": -53.03970277895071,
        "Longitude(deg)": 19.41200581040724,
        "Mean Anomaly(deg)": -86.89883833597914,
        "RAAN(deg)": 204.99066213860547,
        "Satellite Name": "Starlink Shell 1 918",
        "Satellite Number": 918,
        "Semi-Major Axis(m)": 6931778.249405717,
        "Time(s)": 180
    }
]